APRIZESAT 2             
1 28366U 04025A   26178.44343647  .00000205  00000+0  76928-4 0  9997
2 28366  98.1021 343.8436 0104769 218.5639 140.8033 14.38039967153110
SAUDICOMSAT 1           
1 28369U 04025D   26178.46562547  .00000362  00000+0  93956-4 0  9998
2 28369  98.5770 188.8743 0031979 354.4016   5.6818 14.55481349165629
SAUDICOMSAT 2           
1 28370U 04025E   26178.47609001  .00000218  00000+0  68055-4 0  9990
2 28370  98.6639 191.0134 0054514 227.7351 131.9212 14.49986319161593
APRIZESAT 1             
1 28372U 04025G   26178.49506127  .00000266  00000+0  77230-4 0  9997
2 28372  98.6302 189.5011 0045576 123.0931 237.4651 14.51782502163400
NANOSAT-1               
1 28493U 04049B   26178.37679912  .00001040  00000+0  14427-3 0  9996
2 28493  98.2287 315.2875 0002756 254.4474 105.6433 14.80178632156953
SAUDICOMSAT 7           
1 31119U 07012C   26178.41829035  .00000509  00000+0  10009-3 0  9997
2 31119  98.3783 152.7595 0056026 163.1164 197.1920 14.66119439 23930
SAUDICOMSAT 6           
1 31121U 07012E   26178.42066819  .00000509  00000+0  10706-3 0  9998
2 31121  98.4102 146.1277 0070524 295.4712  63.9204 14.62569264 21686
SAUDICOMSAT 5           
1 31124U 07012H   26178.44559115  .00000726  00000+0  13317-3 0  9991
2 31124  98.3494 153.5322 0048741  93.2655 267.4127 14.68169577 25106
SAUDICOMSAT 3           
1 31125U 07012J   26178.45636493  .00000889  00000+0  15296-3 0  9996
2 31125  98.3147 154.0907 0039617  21.5020 338.7838 14.70722713 26336
SAUDICOMSAT 4           
1 31127U 07012L   26178.47136630  .00000397  00000+0  82795-4 0  9991
2 31127  98.3988 151.2519 0062398 225.4683 134.1413 14.64521008 22791
APRIZESAT 4             
1 35684U 09041D   26178.43918713  .00000649  00000+0  84054-4 0  9993
2 35684  98.1411 253.9639 0041942 288.9274  70.7395 14.83891802912882
APRIZESAT 3             
1 35686U 09041F   26178.39758251  .00000951  00000+0  86851-4 0  9992
2 35686  98.2076 332.1113 0062455  34.3916 326.1322 14.96271250917906
S-NET D                 
1 43186U 18014G   26178.29197377  .00005662  00000+0  29169-3 0  9993
2 43186  97.5361  83.0197 0007832 356.9933   3.1252 15.16763606460296
S-NET B                 
1 43187U 18014H   26178.30362343  .00005127  00000+0  26469-3 0  9999
2 43187  97.5364  83.0183 0008281 351.4081   8.7009 15.16733675460292
S-NET A                 
1 43188U 18014J   26178.29079630  .00005727  00000+0  29495-3 0  9990
2 43188  97.5374  83.2164 0008210 352.2012   7.9092 15.16772032460293
S-NET C                 
1 43189U 18014K   26178.43949694  .00004943  00000+0  25534-3 0  9992
2 43189  97.5391  83.4404 0009276 342.2422  17.8485 15.16726845458866
SALSAT                  
1 46495U 20068K   26178.47981012  .00007487  00000+0  26096-3 0  9991
2 46495  97.8847 182.1720 0007835 263.9678  96.0668 15.29940196316931
OOV-CUBE (TUBSAT-30)    
1 60240U 24128F   26178.50198200  .00001706  00000+0  14007-3 0  9996
2 60240  61.9924 189.6042 0043348 136.0616 224.3935 15.02808571107665
LPNTSAT-001 (IOD-1)     
1 68408U 26065A   26178.15851600  .00002970  00000+0  14650-3 0  9991
2 68408  97.4012  58.4571 0015593 335.5283  24.5209 15.18586417 13779
